<?xml version="1.0" encoding="UTF-8"?>
<gpx version="1.1" creator="TrainPace" xmlns="http://www.topografix.com/GPX/1/1" xmlns:xsi="http://www.w3.org/2001/XMLSchema-instance" xsi:schemaLocation="http://www.topografix.com/GPX/1/1 http://www.topografix.com/GPX/1/1/gpx.xsd">
  <metadata>
    <name>Amsterdam Marathon</name>
    <desc>Approximate course outline for map display, generated from TrainPace course preview data. Simplified to a few dozen points and not a surveyed or certified course file - do not use for navigation or course measurement.</desc>
    <link href="https://www.tcsamsterdammarathon.nl/">
      <text>Official race website</text>
    </link>
    <keywords>Amsterdam, Netherlands, marathon, course outline</keywords>
  </metadata>
  <trk>
    <name>Amsterdam Marathon</name>
    <type>marathon</type>
    <trkseg>
      <trkpt lat="52.3434" lon="4.8565"><ele>0</ele></trkpt>
      <trkpt lat="52.3512" lon="4.8678"><ele>0</ele></trkpt>
      <trkpt lat="52.3623" lon="4.8789"><ele>0</ele></trkpt>
      <trkpt lat="52.3734" lon="4.8912"><ele>0</ele></trkpt>
      <trkpt lat="52.3845" lon="4.9034"><ele>0</ele></trkpt>
      <trkpt lat="52.3723" lon="4.9156"><ele>0</ele></trkpt>
      <trkpt lat="52.3589" lon="4.9278"><ele>0</ele></trkpt>
      <trkpt lat="52.3456" lon="4.9156"><ele>0</ele></trkpt>
      <trkpt lat="52.3378" lon="4.9034"><ele>0</ele></trkpt>
      <trkpt lat="52.3289" lon="4.8912"><ele>0</ele></trkpt>
      <trkpt lat="52.3345" lon="4.8789"><ele>0</ele></trkpt>
      <trkpt lat="52.3412" lon="4.8678"><ele>0</ele></trkpt>
      <trkpt lat="52.3478" lon="4.8565"><ele>0</ele></trkpt>
      <trkpt lat="52.3434" lon="4.8565"><ele>0</ele></trkpt>
    </trkseg>
  </trk>
</gpx>
