<?xml version="1.0" encoding="UTF-8"?>
<gpx version="1.1" creator="TrainPace" xmlns="http://www.topografix.com/GPX/1/1" xmlns:xsi="http://www.w3.org/2001/XMLSchema-instance" xsi:schemaLocation="http://www.topografix.com/GPX/1/1 http://www.topografix.com/GPX/1/1/gpx.xsd">
  <metadata>
    <name>Chicago Marathon</name>
    <desc>Approximate course outline for map display, generated from TrainPace course preview data. Simplified to a few dozen points and not a surveyed or certified course file - do not use for navigation or course measurement.</desc>
    <link href="https://www.chicagomarathon.com/">
      <text>Official race website</text>
    </link>
    <keywords>Chicago, Illinois, USA, marathon, course outline</keywords>
  </metadata>
  <trk>
    <name>Chicago Marathon</name>
    <type>marathon</type>
    <trkseg>
      <trkpt lat="41.8781" lon="-87.6298"><ele>181</ele></trkpt>
      <trkpt lat="41.8823" lon="-87.6256"><ele>179</ele></trkpt>
      <trkpt lat="41.8934" lon="-87.6178"><ele>176</ele></trkpt>
      <trkpt lat="41.9045" lon="-87.6134"><ele>178</ele></trkpt>
      <trkpt lat="41.9156" lon="-87.6234"><ele>182</ele></trkpt>
      <trkpt lat="41.9267" lon="-87.6345"><ele>185</ele></trkpt>
      <trkpt lat="41.9378" lon="-87.6456"><ele>179</ele></trkpt>
      <trkpt lat="41.9445" lon="-87.6534"><ele>182</ele></trkpt>
      <trkpt lat="41.9389" lon="-87.6678"><ele>188</ele></trkpt>
      <trkpt lat="41.9278" lon="-87.6789"><ele>190</ele></trkpt>
      <trkpt lat="41.9123" lon="-87.6845"><ele>186</ele></trkpt>
      <trkpt lat="41.8956" lon="-87.6923"><ele>184</ele></trkpt>
      <trkpt lat="41.8789" lon="-87.6834"><ele>182</ele></trkpt>
      <trkpt lat="41.8623" lon="-87.6745"><ele>180</ele></trkpt>
      <trkpt lat="41.8456" lon="-87.6656"><ele>178</ele></trkpt>
      <trkpt lat="41.8389" lon="-87.6523"><ele>176</ele></trkpt>
      <trkpt lat="41.8423" lon="-87.6389"><ele>174</ele></trkpt>
      <trkpt lat="41.8534" lon="-87.6278"><ele>172</ele></trkpt>
      <trkpt lat="41.8645" lon="-87.6189"><ele>175</ele></trkpt>
      <trkpt lat="41.8734" lon="-87.6123"><ele>178</ele></trkpt>
      <trkpt lat="41.8789" lon="-87.6234"><ele>176</ele></trkpt>
      <trkpt lat="41.8756" lon="-87.6244"><ele>178</ele></trkpt>
    </trkseg>
  </trk>
</gpx>
