<?xml version="1.0" encoding="UTF-8"?>
<gpx version="1.1" creator="TrainPace" xmlns="http://www.topografix.com/GPX/1/1" xmlns:xsi="http://www.w3.org/2001/XMLSchema-instance" xsi:schemaLocation="http://www.topografix.com/GPX/1/1 http://www.topografix.com/GPX/1/1/gpx.xsd">
  <metadata>
    <name>London Marathon</name>
    <desc>Approximate course outline for map display, generated from TrainPace course preview data. Simplified to a few dozen points and not a surveyed or certified course file - do not use for navigation or course measurement.</desc>
    <link href="https://www.londonmarathonevents.co.uk/london-marathon">
      <text>Official race website</text>
    </link>
    <keywords>London, England, UK, marathon, course outline</keywords>
  </metadata>
  <trk>
    <name>London Marathon</name>
    <type>marathon</type>
    <trkseg>
      <trkpt lat="51.4769" lon="0.0005"><ele>45</ele></trkpt>
      <trkpt lat="51.4798" lon="-0.0123"><ele>42</ele></trkpt>
      <trkpt lat="51.4823" lon="-0.0234"><ele>38</ele></trkpt>
      <trkpt lat="51.4856" lon="-0.0345"><ele>35</ele></trkpt>
      <trkpt lat="51.4912" lon="-0.0456"><ele>32</ele></trkpt>
      <trkpt lat="51.4967" lon="-0.0567"><ele>28</ele></trkpt>
      <trkpt lat="51.5012" lon="-0.0678"><ele>25</ele></trkpt>
      <trkpt lat="51.5054" lon="-0.0754"><ele>35</ele></trkpt>
      <trkpt lat="51.5089" lon="-0.0834"><ele>32</ele></trkpt>
      <trkpt lat="51.5123" lon="-0.0912"><ele>28</ele></trkpt>
      <trkpt lat="51.5145" lon="-0.1023"><ele>25</ele></trkpt>
      <trkpt lat="51.5134" lon="-0.1134"><ele>22</ele></trkpt>
      <trkpt lat="51.5089" lon="-0.1245"><ele>28</ele></trkpt>
      <trkpt lat="51.5067" lon="-0.1334"><ele>32</ele></trkpt>
      <trkpt lat="51.5012" lon="-0.1423"><ele>35</ele></trkpt>
      <trkpt lat="51.4987" lon="-0.1478"><ele>38</ele></trkpt>
      <trkpt lat="51.4956" lon="-0.1534"><ele>42</ele></trkpt>
      <trkpt lat="51.4923" lon="-0.1456"><ele>45</ele></trkpt>
      <trkpt lat="51.4889" lon="-0.1378"><ele>42</ele></trkpt>
      <trkpt lat="51.4867" lon="-0.1289"><ele>38</ele></trkpt>
      <trkpt lat="51.4945" lon="-0.1234"><ele>35</ele></trkpt>
      <trkpt lat="51.5012" lon="-0.1345"><ele>32</ele></trkpt>
      <trkpt lat="51.5034" lon="-0.1423"><ele>38</ele></trkpt>
      <trkpt lat="51.5012" lon="-0.1456"><ele>42</ele></trkpt>
      <trkpt lat="51.5067" lon="-0.1334"><ele>38</ele></trkpt>
      <trkpt lat="51.5074" lon="-0.1278"><ele>35</ele></trkpt>
    </trkseg>
  </trk>
</gpx>
