<?xml version="1.0" encoding="UTF-8"?>
<gpx version="1.1" creator="TrainPace" xmlns="http://www.topografix.com/GPX/1/1" xmlns:xsi="http://www.w3.org/2001/XMLSchema-instance" xsi:schemaLocation="http://www.topografix.com/GPX/1/1 http://www.topografix.com/GPX/1/1/gpx.xsd">
  <metadata>
    <name>Paris Marathon</name>
    <desc>Approximate course outline for map display, generated from TrainPace course preview data. Simplified to a few dozen points and not a surveyed or certified course file - do not use for navigation or course measurement.</desc>
    <link href="https://www.schneiderelectricparismarathon.com/">
      <text>Official race website</text>
    </link>
    <keywords>Paris, France, marathon, course outline</keywords>
  </metadata>
  <trk>
    <name>Paris Marathon</name>
    <type>marathon</type>
    <trkseg>
      <trkpt lat="48.8698" lon="2.3078"><ele>40</ele></trkpt>
      <trkpt lat="48.8656" lon="2.3234"><ele>38</ele></trkpt>
      <trkpt lat="48.8534" lon="2.3456"><ele>42</ele></trkpt>
      <trkpt lat="48.8456" lon="2.3678"><ele>45</ele></trkpt>
      <trkpt lat="48.8378" lon="2.3912"><ele>48</ele></trkpt>
      <trkpt lat="48.8312" lon="2.4134"><ele>52</ele></trkpt>
      <trkpt lat="48.8389" lon="2.4345"><ele>55</ele></trkpt>
      <trkpt lat="48.8478" lon="2.4123"><ele>50</ele></trkpt>
      <trkpt lat="48.8567" lon="2.3901"><ele>45</ele></trkpt>
      <trkpt lat="48.8623" lon="2.3678"><ele>42</ele></trkpt>
      <trkpt lat="48.8589" lon="2.3456"><ele>38</ele></trkpt>
      <trkpt lat="48.8534" lon="2.3234"><ele>35</ele></trkpt>
      <trkpt lat="48.8612" lon="2.3012"><ele>40</ele></trkpt>
      <trkpt lat="48.8689" lon="2.2834"><ele>45</ele></trkpt>
      <trkpt lat="48.8745" lon="2.2756"><ele>48</ele></trkpt>
      <trkpt lat="48.8738" lon="2.2945"><ele>45</ele></trkpt>
    </trkseg>
  </trk>
</gpx>
