<?xml version="1.0" encoding="UTF-8"?>
<gpx version="1.1" creator="TrainPace" xmlns="http://www.topografix.com/GPX/1/1" xmlns:xsi="http://www.w3.org/2001/XMLSchema-instance" xsi:schemaLocation="http://www.topografix.com/GPX/1/1 http://www.topografix.com/GPX/1/1/gpx.xsd">
  <metadata>
    <name>Rotterdam Marathon</name>
    <desc>Approximate course outline for map display, generated from TrainPace course preview data. Simplified to a few dozen points and not a surveyed or certified course file - do not use for navigation or course measurement.</desc>
    <link href="https://www.nnmarathonrotterdam.org/">
      <text>Official race website</text>
    </link>
    <keywords>Rotterdam, Netherlands, marathon, course outline</keywords>
  </metadata>
  <trk>
    <name>Rotterdam Marathon</name>
    <type>marathon</type>
    <trkseg>
      <trkpt lat="51.9225" lon="4.4792"><ele>0</ele></trkpt>
      <trkpt lat="51.9178" lon="4.4912"><ele>0</ele></trkpt>
      <trkpt lat="51.9123" lon="4.5034"><ele>0</ele></trkpt>
      <trkpt lat="51.9067" lon="4.5156"><ele>0</ele></trkpt>
      <trkpt lat="51.9012" lon="4.5278"><ele>0</ele></trkpt>
      <trkpt lat="51.8956" lon="4.5156"><ele>0</ele></trkpt>
      <trkpt lat="51.9012" lon="4.5034"><ele>0</ele></trkpt>
      <trkpt lat="51.9089" lon="4.4912"><ele>0</ele></trkpt>
      <trkpt lat="51.9156" lon="4.4789"><ele>0</ele></trkpt>
      <trkpt lat="51.9234" lon="4.4667"><ele>0</ele></trkpt>
      <trkpt lat="51.9289" lon="4.4789"><ele>0</ele></trkpt>
      <trkpt lat="51.9256" lon="4.4834"><ele>0</ele></trkpt>
      <trkpt lat="51.9225" lon="4.4792"><ele>0</ele></trkpt>
    </trkseg>
  </trk>
</gpx>
