<?xml version="1.0" encoding="UTF-8"?>
<gpx version="1.1" creator="TrainPace" xmlns="http://www.topografix.com/GPX/1/1" xmlns:xsi="http://www.w3.org/2001/XMLSchema-instance" xsi:schemaLocation="http://www.topografix.com/GPX/1/1 http://www.topografix.com/GPX/1/1/gpx.xsd">
  <metadata>
    <name>Sydney Marathon</name>
    <desc>Approximate course outline for map display, generated from TrainPace course preview data. Simplified to a few dozen points and not a surveyed or certified course file - do not use for navigation or course measurement.</desc>
    <link href="https://www.tcssydneymarathon.com/">
      <text>Official race website</text>
    </link>
    <keywords>Sydney, Australia, marathon, course outline</keywords>
  </metadata>
  <trk>
    <name>Sydney Marathon</name>
    <type>marathon</type>
    <trkseg>
      <trkpt lat="-33.815" lon="151.2094"><ele>85</ele></trkpt>
      <trkpt lat="-33.8178" lon="151.2112"><ele>95</ele></trkpt>
      <trkpt lat="-33.8234" lon="151.2134"><ele>125</ele></trkpt>
      <trkpt lat="-33.8289" lon="151.2145"><ele>134</ele></trkpt>
      <trkpt lat="-33.8334" lon="151.2123"><ele>95</ele></trkpt>
      <trkpt lat="-33.8367" lon="151.2089"><ele>58</ele></trkpt>
      <trkpt lat="-33.8389" lon="151.2134"><ele>45</ele></trkpt>
      <trkpt lat="-33.8423" lon="151.2178"><ele>42</ele></trkpt>
      <trkpt lat="-33.8456" lon="151.2234"><ele>38</ele></trkpt>
      <trkpt lat="-33.8489" lon="151.2289"><ele>35</ele></trkpt>
      <trkpt lat="-33.8534" lon="151.2334"><ele>32</ele></trkpt>
      <trkpt lat="-33.8578" lon="151.2378"><ele>28</ele></trkpt>
      <trkpt lat="-33.8623" lon="151.2423"><ele>45</ele></trkpt>
      <trkpt lat="-33.8667" lon="151.2378"><ele>52</ele></trkpt>
      <trkpt lat="-33.8712" lon="151.2234"><ele>48</ele></trkpt>
      <trkpt lat="-33.8756" lon="151.2089"><ele>42</ele></trkpt>
      <trkpt lat="-33.8823" lon="151.1945"><ele>38</ele></trkpt>
      <trkpt lat="-33.8889" lon="151.1834"><ele>35</ele></trkpt>
      <trkpt lat="-33.8945" lon="151.1723"><ele>32</ele></trkpt>
      <trkpt lat="-33.9012" lon="151.1834"><ele>28</ele></trkpt>
      <trkpt lat="-33.9056" lon="151.1945"><ele>25</ele></trkpt>
      <trkpt lat="-33.9089" lon="151.2089"><ele>22</ele></trkpt>
      <trkpt lat="-33.9034" lon="151.2178"><ele>25</ele></trkpt>
      <trkpt lat="-33.8978" lon="151.2234"><ele>28</ele></trkpt>
      <trkpt lat="-33.8912" lon="151.2289"><ele>32</ele></trkpt>
      <trkpt lat="-33.8834" lon="151.2334"><ele>28</ele></trkpt>
      <trkpt lat="-33.8756" lon="151.2278"><ele>22</ele></trkpt>
      <trkpt lat="-33.8678" lon="151.2223"><ele>18</ele></trkpt>
      <trkpt lat="-33.8568" lon="151.2153"><ele>15</ele></trkpt>
    </trkseg>
  </trk>
</gpx>
