<?xml version="1.0" encoding="UTF-8"?>
<gpx version="1.1" creator="TrainPace" xmlns="http://www.topografix.com/GPX/1/1" xmlns:xsi="http://www.w3.org/2001/XMLSchema-instance" xsi:schemaLocation="http://www.topografix.com/GPX/1/1 http://www.topografix.com/GPX/1/1/gpx.xsd">
  <metadata>
    <name>Valencia Marathon</name>
    <desc>Approximate course outline for map display, generated from TrainPace course preview data. Simplified to a few dozen points and not a surveyed or certified course file - do not use for navigation or course measurement.</desc>
    <link href="https://www.valenciaciudaddelrunning.com/en/marathon/">
      <text>Official race website</text>
    </link>
    <keywords>Valencia, Spain, marathon, course outline</keywords>
  </metadata>
  <trk>
    <name>Valencia Marathon</name>
    <type>marathon</type>
    <trkseg>
      <trkpt lat="39.4699" lon="-0.3763"><ele>12</ele></trkpt>
      <trkpt lat="39.4756" lon="-0.3645"><ele>12</ele></trkpt>
      <trkpt lat="39.4823" lon="-0.3523"><ele>12</ele></trkpt>
      <trkpt lat="39.4912" lon="-0.3412"><ele>12</ele></trkpt>
      <trkpt lat="39.4989" lon="-0.3523"><ele>12</ele></trkpt>
      <trkpt lat="39.4934" lon="-0.3645"><ele>12</ele></trkpt>
      <trkpt lat="39.4856" lon="-0.3767"><ele>12</ele></trkpt>
      <trkpt lat="39.4778" lon="-0.3878"><ele>12</ele></trkpt>
      <trkpt lat="39.4689" lon="-0.3989"><ele>12</ele></trkpt>
      <trkpt lat="39.4612" lon="-0.3867"><ele>12</ele></trkpt>
      <trkpt lat="39.4534" lon="-0.3745"><ele>12</ele></trkpt>
      <trkpt lat="39.4589" lon="-0.3623"><ele>12</ele></trkpt>
      <trkpt lat="39.4656" lon="-0.3712"><ele>12</ele></trkpt>
      <trkpt lat="39.4699" lon="-0.3763"><ele>12</ele></trkpt>
    </trkseg>
  </trk>
</gpx>
